{"type": "FeatureCollection", "features": [ {"type": "Feature", "properties": {"norad_id": 39019, "name": "PLEIADES 1B", "group": "resource", "lat": -17.458453326966517, "lon": -114.90915808937842, "alt_km": 703.1147660632932, "timestamp": "2025-12-21T03:56:50.511509+00:00", "meta": {"OBJECT_NAME": "PLEIADES 1B", "OBJECT_ID": "2012-068A", "EPOCH": "2025-12-20T20:27:32.103360", "MEAN_MOTION": 14.58559041, "ECCENTRICITY": 0.0001189, "INCLINATION": 98.1793, "RA_OF_ASC_NODE": 67.3764, "ARG_OF_PERICENTER": 84.9914, "MEAN_ANOMALY": 275.1421, "EPHEMERIS_TYPE": 0, "CLASSIFICATION_TYPE": "U", "NORAD_CAT_ID": 39019, "ELEMENT_SET_NO": 999, "REV_AT_EPOCH": 69485, "BSTAR": 3.7413e-05, "MEAN_MOTION_DOT": 1.28e-06, "MEAN_MOTION_DDOT": 0}, "tle": {"line1": "1 39019U 12068A   25354.85245490  .00000128  00000+0  37413-4 0  9997", "line2": "2 39019  98.1793  67.3764 0001189  84.9914 275.1421 14.58559041694854"}}, "geometry": {"type": "Point", "coordinates": [-114.90915808937842, -17.458453326966517]}}, {"type": "Feature", "properties": {"norad_id": 39030, "name": "GOKTURK 2", "group": "resource", "lat": -19.470340355541854, "lon": 13.665826845838748, "alt_km": 649.4156243258212, "timestamp": "2025-12-21T03:56:50.511518+00:00", "meta": {"OBJECT_NAME": "GOKTURK 2", "OBJECT_ID": "2012-073A", "EPOCH": "2025-12-20T20:32:04.932096", "MEAN_MOTION": 14.75301608, "ECCENTRICITY": 0.0001287, "INCLINATION": 97.6886, "RA_OF_ASC_NODE": 196.1098, "ARG_OF_PERICENTER": 107.0259, "MEAN_ANOMALY": 253.1092, "EPHEMERIS_TYPE": 0, "CLASSIFICATION_TYPE": "U", "NORAD_CAT_ID": 39030, "ELEMENT_SET_NO": 999, "REV_AT_EPOCH": 69821, "BSTAR": 9.5306e-05, "MEAN_MOTION_DOT": 5.98e-06, "MEAN_MOTION_DDOT": 0}, "tle": {"line1": "1 39030U 12073A   25354.85561264  .00000598  00000+0  95306-4 0  9992", "line2": "2 39030  97.6886 196.1098 0001287 107.0259 253.1092 14.75301608698210"}}, "geometry": {"type": "Point", "coordinates": [13.665826845838748, -19.470340355541854]}}, {"type": "Feature", "properties": {"norad_id": 39084, "name": "LANDSAT 8", "group": "resource", "lat": -35.82780109836244, "lon": 69.09331865238788, "alt_km": 709.2681704336001, "timestamp": "2025-12-21T03:56:50.511528+00:00", "meta": {"OBJECT_NAME": "LANDSAT 8", "OBJECT_ID": "2013-008A", "EPOCH": "2025-12-20T18:13:30.053568", "MEAN_MOTION": 14.57109994, "ECCENTRICITY": 0.0001085, "INCLINATION": 98.2062, "RA_OF_ASC_NODE": 62.7141, "ARG_OF_PERICENTER": 90.9879, "MEAN_ANOMALY": 269.1443, "EPHEMERIS_TYPE": 0, "CLASSIFICATION_TYPE": "U", "NORAD_CAT_ID": 39084, "ELEMENT_SET_NO": 999, "REV_AT_EPOCH": 67191, "BSTAR": 7.2619e-05, "MEAN_MOTION_DOT": 2.82e-06, "MEAN_MOTION_DDOT": 0}, "tle": {"line1": "1 39084U 13008A   25354.75937562  .00000282  00000+0  72619-4 0  9999", "line2": "2 39084  98.2062  62.7141 0001085  90.9879 269.1443 14.57109994671912"}}, "geometry": {"type": "Point", "coordinates": [69.09331865238788, -35.82780109836244]}}, {"type": "Feature", "properties": {"norad_id": 39086, "name": "SARAL", "group": "resource", "lat": -66.41474303004726, "lon": -160.85825668572357, "alt_km": 791.735573183114, "timestamp": "2025-12-21T03:56:50.511537+00:00", "meta": {"OBJECT_NAME": "SARAL", "OBJECT_ID": "2013-009A", "EPOCH": "2025-12-20T18:12:28.066752", "MEAN_MOTION": 14.32759549, "ECCENTRICITY": 0.0002962, "INCLINATION": 98.5502, "RA_OF_ASC_NODE": 178.5844, "ARG_OF_PERICENTER": 93.5754, "MEAN_ANOMALY": 266.5768, "EPHEMERIS_TYPE": 0, "CLASSIFICATION_TYPE": "U", "NORAD_CAT_ID": 39086, "ELEMENT_SET_NO": 999, "REV_AT_EPOCH": 67005, "BSTAR": 4.3581e-05, "MEAN_MOTION_DOT": 7.5e-07, "MEAN_MOTION_DDOT": 0}, "tle": {"line1": "1 39086U 13009A   25354.75865818  .00000075  00000+0  43581-4 0  9992", "line2": "2 39086  98.5502 178.5844 0002962  93.5754 266.5768 14.32759549670053"}}, "geometry": {"type": "Point", "coordinates": [-160.85825668572357, -66.41474303004726]}}, {"type": "Feature", "properties": {"norad_id": 39150, "name": "GAOFEN-1", "group": "resource", "lat": -44.627708985960936, "lon": 73.58581593757754, "alt_km": 659.4522667641759, "timestamp": "2025-12-21T03:56:50.511561+00:00", "meta": {"OBJECT_NAME": "GAOFEN-1", "OBJECT_ID": "2013-018A", "EPOCH": "2025-12-20T20:01:11.489664", "MEAN_MOTION": 14.76492803, "ECCENTRICITY": 0.0018397, "INCLINATION": 97.9324, "RA_OF_ASC_NODE": 65.3506, "ARG_OF_PERICENTER": 118.399, "MEAN_ANOMALY": 241.9077, "EPHEMERIS_TYPE": 0, "CLASSIFICATION_TYPE": "U", "NORAD_CAT_ID": 39150, "ELEMENT_SET_NO": 999, "REV_AT_EPOCH": 68192, "BSTAR": 8.3497e-05, "MEAN_MOTION_DOT": 5.32e-06, "MEAN_MOTION_DDOT": 0}, "tle": {"line1": "1 39150U 13018A   25354.83416076  .00000532  00000+0  83497-4 0  9999", "line2": "2 39150  97.9324  65.3506 0018397 118.3990 241.9077 14.76492803681928"}}, "geometry": {"type": "Point", "coordinates": [73.58581593757754, -44.627708985960936]}}, {"type": "Feature", "properties": {"norad_id": 39160, "name": "VNREDSAT 1", "group": "resource", "lat": 25.834785366400528, "lon": 46.271305952409335, "alt_km": 675.9318238922742, "timestamp": "2025-12-21T03:56:50.511571+00:00", "meta": {"OBJECT_NAME": "VNREDSAT 1", "OBJECT_ID": "2013-021B", "EPOCH": "2025-12-20T21:16:17.249664", "MEAN_MOTION": 14.64933992, "ECCENTRICITY": 0.0001206, "INCLINATION": 97.9367, "RA_OF_ASC_NODE": 49.8759, "ARG_OF_PERICENTER": 80.8923, "MEAN_ANOMALY": 279.2417, "EPHEMERIS_TYPE": 0, "CLASSIFICATION_TYPE": "U", "NORAD_CAT_ID": 39160, "ELEMENT_SET_NO": 999, "REV_AT_EPOCH": 67418, "BSTAR": 9.5448e-05, "MEAN_MOTION_DOT": 4.65e-06, "MEAN_MOTION_DDOT": 0}, "tle": {"line1": "1 39160U 13021B   25354.88631076  .00000465  00000+0  95448-4 0  9992", "line2": "2 39160  97.9367  49.8759 0001206  80.8923 279.2417 14.64933992674181"}}, "geometry": {"type": "Point", "coordinates": [46.271305952409335, 25.834785366400528]}}, {"type": "Feature", "properties": {"norad_id": 39227, "name": "ARIRANG-5 (KOMPSAT-5)", "group": "resource", "lat": -43.155707598609894, "lon": -7.85891310391625, "alt_km": 561.9661559592214, "timestamp": "2025-12-21T03:56:50.511580+00:00", "meta": {"OBJECT_NAME": "ARIRANG-5 (KOMPSAT-5)", "OBJECT_ID": "2013-042A", "EPOCH": "2025-12-20T20:34:19.792992", "MEAN_MOTION": 15.0454115, "ECCENTRICITY": 0.0003436, "INCLINATION": 97.6154, "RA_OF_ASC_NODE": 179.0448, "ARG_OF_PERICENTER": 36.3447, "MEAN_ANOMALY": 323.8012, "EPHEMERIS_TYPE": 0, "CLASSIFICATION_TYPE": "U", "NORAD_CAT_ID": 39227, "ELEMENT_SET_NO": 999, "REV_AT_EPOCH": 67704, "BSTAR": 0.00015897, "MEAN_MOTION_DOT": 2.167e-05, "MEAN_MOTION_DDOT": 0}, "tle": {"line1": "1 39227U 13042A   25354.85717353  .00002167  00000+0  15897-3 0  9999", "line2": "2 39227  97.6154 179.0448 0003436  36.3447 323.8012 15.04541150677042"}}, "geometry": {"type": "Point", "coordinates": [-7.85891310391625, -43.155707598609894]}}, {"type": "Feature", "properties": {"norad_id": 39418, "name": "SKYSAT-A", "group": "resource", "lat": 82.42223184062597, "lon": -56.8596628378999, "alt_km": 529.7606879248424, "timestamp": "2025-12-21T03:56:50.511590+00:00", "meta": {"OBJECT_NAME": "SKYSAT-A", "OBJECT_ID": "2013-066C", "EPOCH": "2025-12-20T16:25:18.026688", "MEAN_MOTION": 15.11656682, "ECCENTRICITY": 0.0021318, "INCLINATION": 97.4096, "RA_OF_ASC_NODE": 44.6513, "ARG_OF_PERICENTER": 207.7312, "MEAN_ANOMALY": 152.2784, "EPHEMERIS_TYPE": 0, "CLASSIFICATION_TYPE": "U", "NORAD_CAT_ID": 39418, "ELEMENT_SET_NO": 999, "REV_AT_EPOCH": 66150, "BSTAR": 0.00016126, "MEAN_MOTION_DOT": 2.693e-05, "MEAN_MOTION_DDOT": 0}, "tle": {"line1": "1 39418U 13066C   25354.68423642  .00002693  00000+0  16126-3 0  9993", "line2": "2 39418  97.4096  44.6513 0021318 207.7312 152.2784 15.11656682661500"}}, "geometry": {"type": "Point", "coordinates": [-56.8596628378999, 82.42223184062597]}}, {"type": "Feature", "properties": {"norad_id": 39419, "name": "DUBAISAT-2", "group": "resource", "lat": 43.6099507025614, "lon": 172.46700892191686, "alt_km": 543.5623835031029, "timestamp": "2025-12-21T03:56:50.511599+00:00", "meta": {"OBJECT_NAME": "DUBAISAT-2", "OBJECT_ID": "2013-066D", "EPOCH": "2025-12-20T20:58:41.430432", "MEAN_MOTION": 15.08425114, "ECCENTRICITY": 0.0010005, "INCLINATION": 97.4442, "RA_OF_ASC_NODE": 345.0304, "ARG_OF_PERICENTER": 289.5931, "MEAN_ANOMALY": 70.4217, "EPHEMERIS_TYPE": 0, "CLASSIFICATION_TYPE": "U", "NORAD_CAT_ID": 39419, "ELEMENT_SET_NO": 999, "REV_AT_EPOCH": 65949, "BSTAR": 0.00021257, "MEAN_MOTION_DOT": 3.25e-05, "MEAN_MOTION_DDOT": 0}, "tle": {"line1": "1 39419U 13066D   25354.87409063  .00003250  00000+0  21257-3 0  9997", "line2": "2 39419  97.4442 345.0304 0010005 289.5931  70.4217 15.08425114659495"}}, "geometry": {"type": "Point", "coordinates": [172.46700892191686, 43.6099507025614]}}, {"type": "Feature", "properties": {"norad_id": 39574, "name": "GPM-CORE", "group": "resource", "lat": -41.643186144050894, "lon": 159.92117241441719, "alt_km": 435.4935000208243, "timestamp": "2025-12-21T03:56:50.511609+00:00", "meta": {"OBJECT_NAME": "GPM-CORE", "OBJECT_ID": "2014-009C", "EPOCH": "2025-12-20T18:49:38.970912", "MEAN_MOTION": 15.44578492, "ECCENTRICITY": 0.0009345, "INCLINATION": 64.9718, "RA_OF_ASC_NODE": 185.7418, "ARG_OF_PERICENTER": 248.4116, "MEAN_ANOMALY": 111.6029, "EPHEMERIS_TYPE": 0, "CLASSIFICATION_TYPE": "U", "NORAD_CAT_ID": 39574, "ELEMENT_SET_NO": 999, "REV_AT_EPOCH": 67025, "BSTAR": 0.00011961, "MEAN_MOTION_DOT": 5.343e-05, "MEAN_MOTION_DDOT": 0}, "tle": {"line1": "1 39574U 14009C   25354.78447883  .00005343  00000+0  11961-3 0  9995", "line2": "2 39574  64.9718 185.7418 0009345 248.4116 111.6029 15.44578492670255"}}, "geometry": {"type": "Point", "coordinates": [159.92117241441719, -41.643186144050894]}}]}